OBJECT_NAME,OBJECT_ID,EPOCH,MEAN_MOTION,ECCENTRICITY,INCLINATION,RA_OF_ASC_NODE,ARG_OF_PERICENTER,MEAN_ANOMALY,EPHEMERIS_TYPE,CLASSIFICATION_TYPE,NORAD_CAT_ID,ELEMENT_SET_NO,REV_AT_EPOCH,BSTAR,MEAN_MOTION_DOT,MEAN_MOTION_DDOT
SAUDISAT 2,2004-025F,2026-06-14T06:45:12.064896,14.56682460,.00236993,98.5507,165.1882,307.6002,52.3044,0,U,28371,999,16532,.63780809E-4,.236E-5,0
COSMOS 2407,2004-028A,2026-06-14T05:47:02.664384,13.76334524,.00378115,82.9609,77.0161,260.5043,211.2907,0,U,28380,999,9947,.32739386E-4,.47E-6,0
COSMOS 2414,2005-002A,2026-06-14T03:33:50.809536,13.87926361,.0039681,82.9502,45.9454,340.0938,19.8675,0,U,28521,999,8339,.43040847E-4,.67E-6,0
INMARSAT 4-F1,2005-009A,2026-06-13T20:50:34.538784,1.00271716,.0002455,5.1634,42.7513,41.8715,308.3195,0,U,28628,999,7763,0,.38E-6,0
SJ-7,2005-024A,2026-06-14T07:53:01.720032,15.21505169,.00166472,97.7282,195.3550,47.3830,312.8805,0,U,28737,999,14759,.34805649E-3,.7789E-4,0
CUBESAT XI-V,2005-043F,2026-06-13T09:27:00.601344,14.72622172,.0013416,98.2979,319.9359,213.2696,146.7669,0,U,28895,999,10119,.21486221E-3,.1317E-4,0
HINODE (SOLAR-B),2006-041A,2026-06-14T07:46:19.045920,14.68619533,.00161027,98.0549,181.5186,299.6814,60.2788,0,U,29479,999,5445,.11344165E-3,.611E-5,0
SHIJIAN-6 02B (SJ-6 02B),2006-046B,2026-06-14T06:44:00.917088,15.01371057,.00152364,97.7162,194.3572,68.8221,291.4630,0,U,29506,999,7030,.12116442E-3,.1504E-4,0
DMSP 5D-3 F17 (USA 191),2006-050A,2026-06-14T06:29:34.015776,14.14992727,.00112364,98.7378,171.9003,66.9605,293.2753,0,U,29522,999,1201,.40791941E-4,.36E-6,0
LAPAN-TUBSAT,2007-001A,2026-06-14T06:59:43.315584,14.85949148,.00116579,98.1337,164.4499,188.8302,171.2710,0,U,29709,999,5072,.11366237E-3,.935E-5,0
HAIYANG-1B,2007-010A,2026-06-14T04:59:44.818368,14.31026195,.0012823,98.3494,147.1689,205.5424,154.5128,0,U,31113,999,21,.43525852E-4,.73E-6,0
COSMO-SKYMED 2,2007-059A,2026-06-14T06:11:39.139296,14.82152837,.00013824,97.8885,348.8986,86.6335,273.5036,0,U,32376,999,157,.51258876E-4,.356E-5,0
CARTOSAT-2A,2008-021A,2026-06-14T06:33:18.451008,14.79233559,.00130422,97.7640,214.0811,117.2735,242.9807,0,U,32783,999,97837,.48262516E-4,.309E-5,0
CUTE-1.7+APD II (CO-65),2008-021C,2026-06-14T04:47:06.479520,15.09428490,.00101514,97.8270,146.5558,48.5281,311.6817,0,U,32785,999,98474,.30257288E-3,.4778E-4,0
SEEDS II (CO-66),2008-021J,2026-06-13T22:28:38.111808,15.32650243,.0001549,97.7509,162.6789,14.7739,345.3547,0,U,32791,999,98679,.59582E-3,.18728E-3,0
YUBILEINY (RS30),2008-025A,2026-06-14T06:45:41.549760,12.43179589,.00189753,82.5044,357.2484,320.4859,39.4837,0,U,32953,999,81933,.79345252E-3,.12E-5,0
FENGYUN 3A,2008-026A,2026-06-14T07:09:47.801088,14.19570543,.000948,98.6883,106.1856,131.1918,229.0077,0,U,32958,999,93499,.43958504E-4,.49E-6,0
HUANJING 1A (HJ-1A),2008-041A,2026-06-14T06:24:22.687200,14.83983762,.00197397,97.6675,151.2181,143.7469,216.5088,0,U,33320,999,95797,.24312132E-3,.1978E-4,0
HUANJING 1B (HJ-1B),2008-041B,2026-06-14T07:15:04.637664,14.83311715,.00357301,97.6512,154.4323,190.5475,169.4994,0,U,33321,999,95798,.7833671E-4,.596E-5,0
SHIJIAN-6 03A (SJ-6 03A),2008-053A,2026-06-14T06:41:22.310880,15.17140945,.00119988,97.8414,198.4978,30.3385,329.8539,0,U,33408,999,96252,.20564778E-3,.4013E-4,0
SHIJIAN-6 03B (SJ-6 03B),2008-053B,2026-06-14T07:20:47.223168,15.04303920,.00211343,97.8580,185.1501,54.2985,306.0203,0,U,33409,999,96231,.12100786E-3,.1628E-4,0
