SAUDISAT 2              
1 28371U 04025F   26165.28138964  .00000236  00000+0  63781-4 0  9992
2 28371  98.5507 165.1882 0023699 307.6002  52.3044 14.56682460165322
COSMOS 2407             
1 28380U 04028A   26165.24100306  .00000047  00000+0  32739-4 0  9999
2 28380  82.9609  77.0161 0037811 260.5043 211.2907 13.76334524 99478
COSMOS 2414             
1 28521U 05002A   26165.14850474  .00000067  00000+0  43041-4 0  9996
2 28521  82.9502  45.9454 0039681 340.0938  19.8675 13.87926361 83396
INMARSAT 4-F1           
1 28628U 05009A   26164.86845531  .00000038  00000+0  00000+0 0  9998
2 28628   5.1634  42.7513 0002455  41.8715 308.3195  1.00271716 77638
SJ-7                    
1 28737U 05024A   26165.32849213  .00007789  00000+0  34806-3 0  9994
2 28737  97.7282 195.3550 0016647  47.3830 312.8805 15.21505169147599
CUBESAT XI-V            
1 28895U 05043F   26164.39375696  .00001317  00000+0  21486-3 0  9996
2 28895  98.2979 319.9359 0013416 213.2696 146.7669 14.72622172101196
HINODE (SOLAR-B)        
1 29479U 06041A   26165.32383155  .00000611  00000+0  11344-3 0  9995
2 29479  98.0549 181.5186 0016102 299.6814  60.2788 14.68619533 54452
SHIJIAN-6 02B (SJ-6 02B)
1 29506U 06046B   26165.28056617  .00001504  00000+0  12116-3 0  9996
2 29506  97.7162 194.3572 0015236  68.8221 291.4630 15.01371057 70306
DMSP 5D-3 F17 (USA 191) 
1 29522U 06050A   26165.27053259  .00000036  00000+0  40792-4 0  9998
2 29522  98.7378 171.9003 0011236  66.9605 293.2753 14.14992727 12011
LAPAN-TUBSAT            
1 29709U 07001A   26165.29147356  .00000935  00000+0  11366-3 0  9998
2 29709  98.1337 164.4499 0011657 188.8302 171.2710 14.85949148 50723
HAIYANG-1B              
1 31113U 07010A   26165.20815762  .00000073  00000+0  43526-4 0  9991
2 31113  98.3494 147.1689 0012823 205.5424 154.5128 14.31026195   213
COSMO-SKYMED 2          
1 32376U 07059A   26165.25809189  .00000356  00000+0  51259-4 0  9993
2 32376  97.8885 348.8986 0001382  86.6335 273.5036 14.82152837  1579
CARTOSAT-2A             
1 32783U 08021A   26165.27313022  .00000309  00000+0  48263-4 0  9992
2 32783  97.7640 214.0811 0013042 117.2735 242.9807 14.79233559978375
CUTE-1.7+APD II (CO-65) 
1 32785U 08021C   26165.19938055  .00004778  00000+0  30257-3 0  9991
2 32785  97.8270 146.5558 0010151  48.5281 311.6817 15.09428490984741
SEEDS II (CO-66)        
1 32791U 08021J   26164.93655222  .00018728  00000+0  59582-3 0  9993
2 32791  97.7509 162.6789 0001549  14.7739 345.3547 15.32650243986791
YUBILEINY (RS30)        
1 32953U 08025A   26165.28173090  .00000120  00000+0  79345-3 0  9990
2 32953  82.5044 357.2484 0018975 320.4859  39.4837 12.43179589819338
FENGYUN 3A              
1 32958U 08026A   26165.29846992  .00000049  00000+0  43959-4 0  9998
2 32958  98.6883 106.1856 0009480 131.1918 229.0077 14.19570543934993
HUANJING 1A (HJ-1A)     
1 33320U 08041A   26165.26692925  .00001978  00000+0  24312-3 0  9994
2 33320  97.6675 151.2181 0019739 143.7469 216.5088 14.83983762957973
HUANJING 1B (HJ-1B)     
1 33321U 08041B   26165.30213701  .00000596  00000+0  78337-4 0  9993
2 33321  97.6512 154.4323 0035730 190.5475 169.4994 14.83311715957989
SHIJIAN-6 03A (SJ-6 03A)
1 33408U 08053A   26165.27873045  .00004013  00000+0  20565-3 0  9998
2 33408  97.8414 198.4978 0011998  30.3385 329.8539 15.17140945962529
SHIJIAN-6 03B (SJ-6 03B)
1 33409U 08053B   26165.30610212  .00001628  00000+0  12101-3 0  9994
2 33409  97.8580 185.1501 0021134  54.2985 306.0203 15.04303920962315
